start=new Date('2021-12-18T00:00:00.000Z').valueOf();
sats=[{"TIME_SYSTEM":"UTC","LAUNCH_DATE":"2020-02-17","MEAN_MOTION":"15.06404312","INCLINATION":"53.0545","TLE_LINE1":"1 45194U 20012S   21351.79840173  .00001056  00000-0  89797-4 0  9995","EPOCH":"2021-12-17T19:09:41.909472","COUNTRY_CODE":"US","APOAPSIS":"548.274","SITE":"AFETR","DECAY_DATE":null,"ELEMENT_SET_NO":"999","REF_FRAME":"TEME","ECCENTRICITY":"0.00015510","BSTAR":"0.00008979700000","EPHEMERIS_TYPE":"0","PERIOD":"95.592","MEAN_MOTION_DDOT":"0.0000000000000","MEAN_MOTION_DOT":"0.00001056","CLASSIFICATION_TYPE":"U","OBJECT_ID":"2020-012S","ARG_OF_PERICENTER":"95.5278","RCS_SIZE":"LARGE","RA_OF_ASC_NODE":"132.9298","GP_ID":"191900878","OBJECT_TYPE":"PAYLOAD","FILE":"3243045","TLE_LINE2":"2 45194  53.0545 132.9298 0001551  95.5278 264.5888 15.06404312102188","SEMIMAJOR_AXIS":"6925.335","OBJECT_NAME":"STARLINK-1240","REV_AT_EPOCH":"10218","NORAD_CAT_ID":"45194","CENTER_NAME":"EARTH","MEAN_ANOMALY":"264.5888","PERIAPSIS":"546.126","MEAN_ELEMENT_THEORY":"SGP4"},{"PERIOD":"95.592","BSTAR":"0.00002728700000","EPHEMERIS_TYPE":"0","MEAN_MOTION_DDOT":"0.0000000000000","MEAN_MOTION_DOT":"0.00000125","ELEMENT_SET_NO":"999","DECAY_DATE":null,"SITE":"AFETR","ECCENTRICITY":"0.00018150","REF_FRAME":"TEME","COUNTRY_CODE":"US","INCLINATION":"53.0535","TLE_LINE1":"1 45195U 20012T   21351.85737975  .00000125  00000-0  27287-4 0  9990","EPOCH":"2021-12-17T20:34:37.610400","APOAPSIS":"548.480","LAUNCH_DATE":"2020-02-17","TIME_SYSTEM":"UTC","MEAN_MOTION":"15.06396900","MEAN_ELEMENT_THEORY":"SGP4","PERIAPSIS":"545.966","CENTER_NAME":"EARTH","REV_AT_EPOCH":"10229","NORAD_CAT_ID":"45195","MEAN_ANOMALY":"266.4778","OBJECT_TYPE":"PAYLOAD","GP_ID":"191901129","OBJECT_NAME":"STARLINK-1241","SEMIMAJOR_AXIS":"6925.358","TLE_LINE2":"2 45195  53.0535 132.6613 0001815  93.6419 266.4778 15.06396900102299","FILE":"3243045","OBJECT_ID":"2020-012T","RCS_SIZE":"LARGE","ARG_OF_PERICENTER":"93.6419","CLASSIFICATION_TYPE":"U","RA_OF_ASC_NODE":"132.6613"},{"EPOCH":"2021-12-17T20:18:42.759072","TLE_LINE1":"1 45196U 20012U   21351.84632823 -.00000061  00000-0  14826-4 0  9991","INCLINATION":"53.0533","COUNTRY_CODE":"US","APOAPSIS":"548.399","TIME_SYSTEM":"UTC","LAUNCH_DATE":"2020-02-17","MEAN_MOTION":"15.06413525","EPHEMERIS_TYPE":"0","BSTAR":"0.00001482600000","PERIOD":"95.591","MEAN_MOTION_DDOT":"0.0000000000000","MEAN_MOTION_DOT":"-0.00000061","SITE":"AFETR","DECAY_DATE":null,"ELEMENT_SET_NO":"999","REF_FRAME":"TEME","ECCENTRICITY":"0.00017720","GP_ID":"191899877","OBJECT_TYPE":"PAYLOAD","TLE_LINE2":"2 45196  53.0533 132.7047 0001772  97.1596 262.9594 15.06413525102343","FILE":"3243045","SEMIMAJOR_AXIS":"6925.307","OBJECT_NAME":"STARLINK-1244","CLASSIFICATION_TYPE":"U","RCS_SIZE":"LARGE","ARG_OF_PERICENTER":"97.1596","OBJECT_ID":"2020-012U","RA_OF_ASC_NODE":"132.7047","PERIAPSIS":"545.945","MEAN_ELEMENT_THEORY":"SGP4","NORAD_CAT_ID":"45196","REV_AT_EPOCH":"10234","CENTER_NAME":"EARTH","MEAN_ANOMALY":"262.9594"},{"OBJECT_NAME":"STARLINK-1269","FILE":"3243045","TLE_LINE2":"2 45197  53.0545 132.7593 0001728  95.8860 264.2326 15.06395295102265","SEMIMAJOR_AXIS":"6925.363","OBJECT_TYPE":"PAYLOAD","GP_ID":"191900127","RA_OF_ASC_NODE":"132.7593","OBJECT_ID":"2020-012V","ARG_OF_PERICENTER":"95.8860","RCS_SIZE":"LARGE","CLASSIFICATION_TYPE":"U","MEAN_ELEMENT_THEORY":"SGP4","PERIAPSIS":"546.031","MEAN_ANOMALY":"264.2326","CENTER_NAME":"EARTH","REV_AT_EPOCH":"10226","NORAD_CAT_ID":"45197","APOAPSIS":"548.425","COUNTRY_CODE":"US","INCLINATION":"53.0545","EPOCH":"2021-12-17T20:02:46.808736","TLE_LINE1":"1 45197U 20012V   21351.83526399 -.00000737  00000-0 -30553-4 0  9997","MEAN_MOTION":"15.06395295","LAUNCH_DATE":"2020-02-17","TIME_SYSTEM":"UTC","MEAN_MOTION_DOT":"-0.00000737","MEAN_MOTION_DDOT":"0.0000000000000","PERIOD":"95.592","BSTAR":"-0.00003055300000","EPHEMERIS_TYPE":"0","ECCENTRICITY":"0.00017280","REF_FRAME":"TEME","DECAY_DATE":null,"ELEMENT_SET_NO":"999","SITE":"AFETR"},{"PERIAPSIS":"545.964","MEAN_ELEMENT_THEORY":"SGP4","MEAN_ANOMALY":"259.6449","NORAD_CAT_ID":"45198","REV_AT_EPOCH":"10250","CENTER_NAME":"EARTH","FILE":"3243045","TLE_LINE2":"2 45198  53.0533 113.1051 0001820 100.4745 259.6449 15.06396599102502","SEMIMAJOR_AXIS":"6925.359","OBJECT_NAME":"STARLINK-1154","GP_ID":"191901378","OBJECT_TYPE":"PAYLOAD","RA_OF_ASC_NODE":"113.1051","CLASSIFICATION_TYPE":"U","RCS_SIZE":"LARGE","ARG_OF_PERICENTER":"100.4745","OBJECT_ID":"2020-012W","MEAN_MOTION_DDOT":"0.0000000000000","MEAN_MOTION_DOT":"-0.00000492","EPHEMERIS_TYPE":"0","BSTAR":"-0.00001415000000","PERIOD":"95.592","REF_FRAME":"TEME","ECCENTRICITY":"0.00018200","SITE":"AFETR","DECAY_DATE":null,"ELEMENT_SET_NO":"999","APOAPSIS":"548.484","TLE_LINE1":"1 45198U 20012W   21351.75970166 -.00000492  00000-0 -14150-4 0  9997","EPOCH":"2021-12-17T18:13:58.223424","INCLINATION":"53.0533","COUNTRY_CODE":"US","MEAN_MOTION":"15.06396599","TIME_SYSTEM":"UTC","LAUNCH_DATE":"2020-02-17"},{"COUNTRY_CODE":"US","EPOCH":"2021-12-17T19:54:48.938112","TLE_LINE1":"1 45199U 20012X   21351.82973308 -.00000167  00000-0  76719-5 0  9995","INCLINATION":"53.0534","APOAPSIS":"548.496","LAUNCH_DATE":"2020-02-17","TIME_SYSTEM":"UTC","MEAN_MOTION":"15.06405106","PERIOD":"95.592","BSTAR":"0.00000767190000","EPHEMERIS_TYPE":"0","MEAN_MOTION_DDOT":"0.0000000000000","MEAN_MOTION_DOT":"-0.00000167","ELEMENT_SET_NO":"999","DECAY_DATE":null,"SITE":"AFETR","ECCENTRICITY":"0.00018750","REF_FRAME":"TEME","OBJECT_TYPE":"PAYLOAD","GP_ID":"191901629","OBJECT_NAME":"STARLINK-1197","FILE":"3243045","TLE_LINE2":"2 45199  53.0534 112.7904 0001875 101.1833 258.9367 15.06405106102575","SEMIMAJOR_AXIS":"6925.333","ARG_OF_PERICENTER":"101.1833","RCS_SIZE":"LARGE","OBJECT_ID":"2020-012X","CLASSIFICATION_TYPE":"U","RA_OF_ASC_NODE":"112.7904","MEAN_ELEMENT_THEORY":"SGP4","PERIAPSIS":"545.899","CENTER_NAME":"EARTH","NORAD_CAT_ID":"45199","REV_AT_EPOCH":"10257","MEAN_ANOMALY":"258.9367"},{"MEAN_MOTION_DDOT":"0.0000000000000","MEAN_MOTION_DOT":"-0.00000343","PERIOD":"95.592","EPHEMERIS_TYPE":"0","BSTAR":"-0.00000414620000","ECCENTRICITY":"0.00012410","REF_FRAME":"TEME","DECAY_DATE":null,"ELEMENT_SET_NO":"999","SITE":"AFETR","APOAPSIS":"548.080","COUNTRY_CODE":"US","TLE_LINE1":"1 45201U 20012Z   21351.83710371 -.00000343  00000-0 -41462-5 0  9993","EPOCH":"2021-12-17T20:05:25.760544","INCLINATION":"53.0553","MEAN_MOTION":"15.06397588","LAUNCH_DATE":"2020-02-17","TIME_SYSTEM":"UTC","MEAN_ELEMENT_THEORY":"SGP4","PERIAPSIS":"546.362","MEAN_ANOMALY":"268.4441","CENTER_NAME":"EARTH","NORAD_CAT_ID":"45201","REV_AT_EPOCH":"10257","OBJECT_NAME":"STARLINK-1199","TLE_LINE2":"2 45201  53.0553 112.7637 0001241  91.6690 268.4441 15.06397588102577","SEMIMAJOR_AXIS":"6925.356","FILE":"3243045","OBJECT_TYPE":"PAYLOAD","GP_ID":"191900377","RA_OF_ASC_NODE":"112.7637","RCS_SIZE":"LARGE","ARG_OF_PERICENTER":"91.6690","OBJECT_ID":"2020-012Z","CLASSIFICATION_TYPE":"U"},{"RA_OF_ASC_NODE":"126.4683","OBJECT_ID":"2020-012AA","RCS_SIZE":"LARGE","ARG_OF_PERICENTER":"101.5931","CLASSIFICATION_TYPE":"U","OBJECT_NAME":"STARLINK-1203","SEMIMAJOR_AXIS":"6917.068","TLE_LINE2":"2 45202  52.9809 126.4683 0001717 101.5931 258.5251 15.09105813102378","FILE":"3243045","OBJECT_TYPE":"PAYLOAD","GP_ID":"191900627","MEAN_ANOMALY":"258.5251","CENTER_NAME":"EARTH","REV_AT_EPOCH":"10237","NORAD_CAT_ID":"45202","MEAN_ELEMENT_THEORY":"SGP4","PERIAPSIS":"537.745","MEAN_MOTION":"15.09105813","LAUNCH_DATE":"2020-02-17","TIME_SYSTEM":"UTC","APOAPSIS":"540.121","COUNTRY_CODE":"US","INCLINATION":"52.9809","TLE_LINE1":"1 45202U 20012AA  21351.82019252  .00006628  00000-0  43097-3 0  9997","EPOCH":"2021-12-17T19:41:04.633728","ECCENTRICITY":"0.00017170","REF_FRAME":"TEME","DECAY_DATE":null,"ELEMENT_SET_NO":"999","SITE":"AFETR","MEAN_MOTION_DOT":"0.00006628","MEAN_MOTION_DDOT":"0.0000000000000","PERIOD":"95.421","BSTAR":"0.00043097000000","EPHEMERIS_TYPE":"0"},{"GP_ID":"191900879","OBJECT_TYPE":"PAYLOAD","SEMIMAJOR_AXIS":"6676.904","TLE_LINE2":"2 45203  53.0528  77.8558 0007478 317.1340  42.9102 15.91256181102969","FILE":"3243045","OBJECT_NAME":"STARLINK-1204","CLASSIFICATION_TYPE":"U","ARG_OF_PERICENTER":"317.1340","RCS_SIZE":"LARGE","OBJECT_ID":"2020-012AB","RA_OF_ASC_NODE":"77.8558","PERIAPSIS":"293.776","MEAN_ELEMENT_THEORY":"SGP4","NORAD_CAT_ID":"45203","REV_AT_EPOCH":"10296","CENTER_NAME":"EARTH","MEAN_ANOMALY":"42.9102","EPOCH":"2021-12-17T14:58:07.096800","TLE_LINE1":"1 45203U 20012AB  21351.62369325  .00091596  14234-4  28976-3 0  9990","INCLINATION":"53.0528","COUNTRY_CODE":"US","APOAPSIS":"303.762","TIME_SYSTEM":"UTC","LAUNCH_DATE":"2020-02-17","MEAN_MOTION":"15.91256181","BSTAR":"0.00028976000000","EPHEMERIS_TYPE":"0","PERIOD":"90.495","MEAN_MOTION_DDOT":"0.0000142340000","MEAN_MOTION_DOT":"0.00091596","SITE":"AFETR","DECAY_DATE":null,"ELEMENT_SET_NO":"999","REF_FRAME":"TEME","ECCENTRICITY":"0.00074780"},{"MEAN_ANOMALY":"269.9585","REV_AT_EPOCH":"10257","NORAD_CAT_ID":"45204","CENTER_NAME":"EARTH","PERIAPSIS":"546.154","MEAN_ELEMENT_THEORY":"SGP4","RA_OF_ASC_NODE":"113.2206","CLASSIFICATION_TYPE":"U","OBJECT_ID":"2020-012AC","ARG_OF_PERICENTER":"90.1578","RCS_SIZE":"LARGE","SEMIMAJOR_AXIS":"6925.341","TLE_LINE2":"2 45204  53.0562 113.2206 0001518  90.1578 269.9585 15.06402610102572","FILE":"3243045","OBJECT_NAME":"STARLINK-1206","GP_ID":"191901130","OBJECT_TYPE":"PAYLOAD","REF_FRAME":"TEME","ECCENTRICITY":"0.00015180","SITE":"AFETR","ELEMENT_SET_NO":"999","DECAY_DATE":null,"MEAN_MOTION_DDOT":"0.0000000000000","MEAN_MOTION_DOT":"0.00000504","BSTAR":"0.00005273800000","EPHEMERIS_TYPE":"0","PERIOD":"95.592","MEAN_MOTION":"15.06402610","TIME_SYSTEM":"UTC","LAUNCH_DATE":"2020-02-17","APOAPSIS":"548.257","INCLINATION":"53.0562","TLE_LINE1":"1 45204U 20012AC  21351.73020703  .00000504  00000-0  52738-4 0  9992","EPOCH":"2021-12-17T17:31:29.887392","COUNTRY_CODE":"US"}];
